{"type": "FeatureCollection", "features": [ {"type": "Feature", "properties": {"norad_id": 32106, "name": "FENGYUN 1C DEB", "group": "fengyun-1c-debris", "lat": 21.706339031120716, "lon": 141.0797218219267, "alt_km": 830.7498952765836, "timestamp": "2025-12-11T10:53:16.173030+00:00", "meta": {"OBJECT_NAME": "FENGYUN 1C DEB", "OBJECT_ID": "1999-025CQY", "EPOCH": "2025-12-07T15:17:19.253760", "MEAN_MOTION": 14.2683793, "ECCENTRICITY": 0.01100208, "INCLINATION": 101.4628, "RA_OF_ASC_NODE": 311.4602, "ARG_OF_PERICENTER": 55.4734, "MEAN_ANOMALY": 305.6765, "EPHEMERIS_TYPE": 0, "CLASSIFICATION_TYPE": "U", "NORAD_CAT_ID": 32106, "ELEMENT_SET_NO": 999, "REV_AT_EPOCH": 69319, "BSTAR": 0.0067717781, "MEAN_MOTION_DOT": 0.00017494, "MEAN_MOTION_DDOT": 0}, "tle": {"line1": "1 32106U 99025CQY 25341.63702840  .00017494  00000+0  67718-2 0  9997", "line2": "2 32106 101.4628 311.4602 0110020  55.4734 305.6765 14.26837930693198"}}, "geometry": {"type": "Point", "coordinates": [141.0797218219267, 21.706339031120716]}}, {"type": "Feature", "properties": {"norad_id": 32109, "name": "FENGYUN 1C DEB", "group": "fengyun-1c-debris", "lat": -80.55405288127955, "lon": -72.84736017025145, "alt_km": 674.8430766669735, "timestamp": "2025-12-11T10:53:16.173040+00:00", "meta": {"OBJECT_NAME": "FENGYUN 1C DEB", "OBJECT_ID": "1999-025CRB", "EPOCH": "2025-12-10T21:52:28.112736", "MEAN_MOTION": 14.33927544, "ECCENTRICITY": 0.0205754, "INCLINATION": 98.3586, "RA_OF_ASC_NODE": 224.5362, "ARG_OF_PERICENTER": 317.8302, "MEAN_ANOMALY": 40.721, "EPHEMERIS_TYPE": 0, "CLASSIFICATION_TYPE": "U", "NORAD_CAT_ID": 32109, "ELEMENT_SET_NO": 999, "REV_AT_EPOCH": 64862, "BSTAR": 0.00088785, "MEAN_MOTION_DOT": 3.089e-05, "MEAN_MOTION_DDOT": 0}, "tle": {"line1": "1 32109U 99025CRB 25344.91143649  .00003089  00000+0  88785-3 0  9993", "line2": "2 32109  98.3586 224.5362 0205754 317.8302  40.7210 14.33927544648629"}}, "geometry": {"type": "Point", "coordinates": [-72.84736017025145, -80.55405288127955]}}, {"type": "Feature", "properties": {"norad_id": 32110, "name": "FENGYUN 1C DEB", "group": "fengyun-1c-debris", "lat": -37.80414908855811, "lon": 162.03053529198365, "alt_km": 786.0950621641969, "timestamp": "2025-12-11T10:53:16.173050+00:00", "meta": {"OBJECT_NAME": "FENGYUN 1C DEB", "OBJECT_ID": "1999-025CRC", "EPOCH": "2025-12-09T22:48:38.448000", "MEAN_MOTION": 14.28864691, "ECCENTRICITY": 0.00332869, "INCLINATION": 99.5448, "RA_OF_ASC_NODE": 152.8867, "ARG_OF_PERICENTER": 14.9421, "MEAN_ANOMALY": 138.8449, "EPHEMERIS_TYPE": 0, "CLASSIFICATION_TYPE": "U", "NORAD_CAT_ID": 32110, "ELEMENT_SET_NO": 999, "REV_AT_EPOCH": 64348, "BSTAR": 0.0021084405, "MEAN_MOTION_DOT": 5.304e-05, "MEAN_MOTION_DDOT": 0}, "tle": {"line1": "1 32110U 99025CRC 25343.95044500  .00005304  00000+0  21084-2 0  9994", "line2": "2 32110  99.5448 152.8867 0033286  14.9421 138.8449 14.28864691643489"}}, "geometry": {"type": "Point", "coordinates": [162.03053529198365, -37.80414908855811]}}, {"type": "Feature", "properties": {"norad_id": 32111, "name": "FENGYUN 1C DEB", "group": "fengyun-1c-debris", "lat": -47.89422559770929, "lon": -5.320822309268213, "alt_km": 811.3265085731209, "timestamp": "2025-12-11T10:53:16.173061+00:00", "meta": {"OBJECT_NAME": "FENGYUN 1C DEB", "OBJECT_ID": "1999-025CRD", "EPOCH": "2025-12-09T11:11:57.828192", "MEAN_MOTION": 14.31540382, "ECCENTRICITY": 0.01195508, "INCLINATION": 98.4433, "RA_OF_ASC_NODE": 343.2869, "ARG_OF_PERICENTER": 214.6006, "MEAN_ANOMALY": 301.2277, "EPHEMERIS_TYPE": 0, "CLASSIFICATION_TYPE": "U", "NORAD_CAT_ID": 32111, "ELEMENT_SET_NO": 999, "REV_AT_EPOCH": 95984, "BSTAR": 0.00037065644, "MEAN_MOTION_DOT": 1.022e-05, "MEAN_MOTION_DDOT": 0}, "tle": {"line1": "1 32111U 99025CRD 25343.46664153  .00001022  00000+0  37066-3 0  9994", "line2": "2 32111  98.4433 343.2869 0119550 214.6006 301.2277 14.31540382959844"}}, "geometry": {"type": "Point", "coordinates": [-5.320822309268213, -47.89422559770929]}}, {"type": "Feature", "properties": {"norad_id": 32113, "name": "FENGYUN 1C DEB", "group": "fengyun-1c-debris", "lat": 4.688293065259214, "lon": 19.50939482367974, "alt_km": 1034.849686138965, "timestamp": "2025-12-11T10:53:16.173073+00:00", "meta": {"OBJECT_NAME": "FENGYUN 1C DEB", "OBJECT_ID": "1999-025CRF", "EPOCH": "2025-12-10T09:02:06.339264", "MEAN_MOTION": 13.94546205, "ECCENTRICITY": 0.02379412, "INCLINATION": 99.0274, "RA_OF_ASC_NODE": 19.2022, "ARG_OF_PERICENTER": 233.125, "MEAN_ANOMALY": 124.789, "EPHEMERIS_TYPE": 0, "CLASSIFICATION_TYPE": "U", "NORAD_CAT_ID": 32113, "ELEMENT_SET_NO": 999, "REV_AT_EPOCH": 62853, "BSTAR": 0.0013218104, "MEAN_MOTION_DOT": 2.189e-05, "MEAN_MOTION_DDOT": 0}, "tle": {"line1": "1 32113U 99025CRF 25344.37646226  .00002189  00000+0  13218-2 0  9995", "line2": "2 32113  99.0274  19.2022 0237941 233.1250 124.7890 13.94546205628535"}}, "geometry": {"type": "Point", "coordinates": [19.50939482367974, 4.688293065259214]}}, {"type": "Feature", "properties": {"norad_id": 32114, "name": "FENGYUN 1C DEB", "group": "fengyun-1c-debris", "lat": 71.39111913088445, "lon": -46.44840665134187, "alt_km": 646.7430279460923, "timestamp": "2025-12-11T10:53:16.173083+00:00", "meta": {"OBJECT_NAME": "FENGYUN 1C DEB", "OBJECT_ID": "1999-025CRG", "EPOCH": "2025-12-06T13:19:21.641376", "MEAN_MOTION": 14.76489439, "ECCENTRICITY": 0.00447682, "INCLINATION": 99.9287, "RA_OF_ASC_NODE": 96.1919, "ARG_OF_PERICENTER": 3.5911, "MEAN_ANOMALY": 356.5605, "EPHEMERIS_TYPE": 0, "CLASSIFICATION_TYPE": "U", "NORAD_CAT_ID": 32114, "ELEMENT_SET_NO": 999, "REV_AT_EPOCH": 65638, "BSTAR": 0.0040574802, "MEAN_MOTION_DOT": 0.0002877, "MEAN_MOTION_DDOT": 0}, "tle": {"line1": "1 32114U 99025CRG 25340.55511159  .00028770  00000+0  40575-2 0  9998", "line2": "2 32114  99.9287  96.1919 0044768   3.5911 356.5605 14.76489439656383"}}, "geometry": {"type": "Point", "coordinates": [-46.44840665134187, 71.39111913088445]}}, {"type": "Feature", "properties": {"norad_id": 32117, "name": "FENGYUN 1C DEB", "group": "fengyun-1c-debris", "lat": 9.044168858148335, "lon": -147.80065404816293, "alt_km": 808.6799816191769, "timestamp": "2025-12-11T10:53:16.173097+00:00", "meta": {"OBJECT_NAME": "FENGYUN 1C DEB", "OBJECT_ID": "1999-025CRK", "EPOCH": "2025-12-10T08:47:41.781984", "MEAN_MOTION": 14.23925187, "ECCENTRICITY": 0.00275954, "INCLINATION": 98.6124, "RA_OF_ASC_NODE": 29.7522, "ARG_OF_PERICENTER": 98.5643, "MEAN_ANOMALY": 261.8664, "EPHEMERIS_TYPE": 0, "CLASSIFICATION_TYPE": "U", "NORAD_CAT_ID": 32117, "ELEMENT_SET_NO": 999, "REV_AT_EPOCH": 94763, "BSTAR": 0.0014152729, "MEAN_MOTION_DOT": 3.215e-05, "MEAN_MOTION_DDOT": 0}, "tle": {"line1": "1 32117U 99025CRK 25344.36645581  .00003215  00000+0  14153-2 0  9991", "line2": "2 32117  98.6124  29.7522 0027595  98.5643 261.8664 14.23925187947630"}}, "geometry": {"type": "Point", "coordinates": [-147.80065404816293, 9.044168858148335]}}, {"type": "Feature", "properties": {"norad_id": 32119, "name": "FENGYUN 1C DEB", "group": "fengyun-1c-debris", "lat": -66.99274184254065, "lon": -127.89286255884188, "alt_km": 926.3346376251002, "timestamp": "2025-12-11T10:53:16.173108+00:00", "meta": {"OBJECT_NAME": "FENGYUN 1C DEB", "OBJECT_ID": "1999-025CRM", "EPOCH": "2025-12-10T21:31:22.141056", "MEAN_MOTION": 14.02813537, "ECCENTRICITY": 0.0085507, "INCLINATION": 99.8876, "RA_OF_ASC_NODE": 207.2511, "ARG_OF_PERICENTER": 57.2355, "MEAN_ANOMALY": 303.7012, "EPHEMERIS_TYPE": 0, "CLASSIFICATION_TYPE": "U", "NORAD_CAT_ID": 32119, "ELEMENT_SET_NO": 999, "REV_AT_EPOCH": 93702, "BSTAR": 0.0011169, "MEAN_MOTION_DOT": 1.734e-05, "MEAN_MOTION_DDOT": 0}, "tle": {"line1": "1 32119U 99025CRM 25344.89678404  .00001734  00000+0  11169-2 0  9999", "line2": "2 32119  99.8876 207.2511 0085507  57.2355 303.7012 14.02813537937026"}}, "geometry": {"type": "Point", "coordinates": [-127.89286255884188, -66.99274184254065]}}, {"type": "Feature", "properties": {"norad_id": 32123, "name": "FENGYUN 1C DEB", "group": "fengyun-1c-debris", "lat": -65.43398461255835, "lon": 173.30444624858757, "alt_km": 583.0842347720281, "timestamp": "2025-12-11T10:53:16.173120+00:00", "meta": {"OBJECT_NAME": "FENGYUN 1C DEB", "OBJECT_ID": "1999-025CRR", "EPOCH": "2025-12-10T17:10:26.289120", "MEAN_MOTION": 14.61450732, "ECCENTRICITY": 0.01597152, "INCLINATION": 98.941, "RA_OF_ASC_NODE": 152.3615, "ARG_OF_PERICENTER": 299.4383, "MEAN_ANOMALY": 72.783, "EPHEMERIS_TYPE": 0, "CLASSIFICATION_TYPE": "U", "NORAD_CAT_ID": 32123, "ELEMENT_SET_NO": 999, "REV_AT_EPOCH": 71345, "BSTAR": 0.00041556858, "MEAN_MOTION_DOT": 2.402e-05, "MEAN_MOTION_DDOT": 0}, "tle": {"line1": "1 32123U 99025CRR 25344.71558205  .00002402  00000+0  41557-3 0  9999", "line2": "2 32123  98.9410 152.3615 0159715 299.4383  72.7830 14.61450732713453"}}, "geometry": {"type": "Point", "coordinates": [173.30444624858757, -65.43398461255835]}}, {"type": "Feature", "properties": {"norad_id": 32125, "name": "FENGYUN 1C DEB", "group": "fengyun-1c-debris", "lat": 36.290314982850596, "lon": -41.07919047459337, "alt_km": 614.8613891448167, "timestamp": "2025-12-11T10:53:16.173130+00:00", "meta": {"OBJECT_NAME": "FENGYUN 1C DEB", "OBJECT_ID": "1999-025CRT", "EPOCH": "2025-11-30T16:29:46.563072", "MEAN_MOTION": 14.69027096, "ECCENTRICITY": 0.01775541, "INCLINATION": 99.061, "RA_OF_ASC_NODE": 313.7121, "ARG_OF_PERICENTER": 0.429, "MEAN_ANOMALY": 359.7033, "EPHEMERIS_TYPE": 0, "CLASSIFICATION_TYPE": "U", "NORAD_CAT_ID": 32125, "ELEMENT_SET_NO": 999, "REV_AT_EPOCH": 70346, "BSTAR": 0.0033542642, "MEAN_MOTION_DOT": 0.00025065, "MEAN_MOTION_DDOT": 0}, "tle": {"line1": "1 32125U 99025CRT 25334.68734448  .00025065  00000+0  33543-2 0  9996", "line2": "2 32125  99.0610 313.7121 0177554   0.4290 359.7033 14.69027096703466"}}, "geometry": {"type": "Point", "coordinates": [-41.07919047459337, 36.290314982850596]}}]}